{
  "type": "FeatureCollection",
  "features": [
    {
      "type": "Feature",
      "properties": {
        "norad_id": 28051,
        "name": "IRS-P6 (RESOURCESAT-1)",
        "group": "resource",
        "lat": -10.012862077041818,
        "lon": 24.319420433290066,
        "alt_km": 817.3108529551582,
        "timestamp": "2025-12-08T05:48:08.704020+00:00",
        "meta_object_name": "IRS-P6 (RESOURCESAT-1)",
        "meta_object_id": "2003-046A",
        "meta_epoch": "2025-12-07T23:29:14.945280",
        "meta_mean_motion": 14.36071413,
        "meta_eccentricity": 0.00639264,
        "meta_inclination": 98.2185,
        "meta_ra_of_asc_node": 22.6063,
        "meta_arg_of_pericenter": 195.0004,
        "meta_mean_anomaly": 235.1832,
        "meta_ephemeris_type": 0,
        "meta_classification_type": "U",
        "meta_norad_cat_id": 28051,
        "meta_element_set_no": 999,
        "meta_rev_at_epoch": 15308,
        "meta_bstar": 0.00012661581,
        "meta_mean_motion_dot": 3.36e-06,
        "meta_mean_motion_ddot": 0,
        "tle_line1": "1 28051U 03046A   25341.97864520  .00000336  00000+0  12662-3 0  9996",
        "tle_line2": "2 28051  98.2185  22.6063 0063926 195.0004 235.1832 14.36071413153086"
      },
      "geometry": {
        "type": "Point",
        "coordinates": [
          24.319420433290066,
          -10.012862077041818
        ]
      }
    },
    {
      "type": "Feature",
      "properties": {
        "norad_id": 28220,
        "name": "SHIYAN-1 (SY-1)",
        "group": "resource",
        "lat": 3.7227827344048046,
        "lon": -135.96740819620814,
        "alt_km": 488.4562315948824,
        "timestamp": "2025-12-08T05:48:08.704031+00:00",
        "meta_object_name": "SHIYAN-1 (SY-1)",
        "meta_object_id": "2004-012A",
        "meta_epoch": "2025-12-07T18:01:54.696000",
        "meta_mean_motion": 15.27951241,
        "meta_eccentricity": 0.00059612,
        "meta_inclination": 97.8938,
        "meta_ra_of_asc_node": 42.9961,
        "meta_arg_of_pericenter": 344.9547,
        "meta_mean_anomaly": 15.1513,
        "meta_ephemeris_type": 0,
        "meta_classification_type": "U",
        "meta_norad_cat_id": 28220,
        "meta_element_set_no": 999,
        "meta_rev_at_epoch": 18180,
        "meta_bstar": 0.00071455584,
        "meta_mean_motion_dot": 0.00019449,
        "meta_mean_motion_ddot": 0,
        "tle_line1": "1 28220U 04012A   25341.75132750  .00019449  00000+0  71456-3 0  9998",
        "tle_line2": "2 28220  97.8938  42.9961 0005961 344.9547  15.1513 15.27951241181809"
      },
      "geometry": {
        "type": "Point",
        "coordinates": [
          -135.96740819620814,
          3.7227827344048046
        ]
      }
    },
    {
      "type": "Feature",
      "properties": {
        "norad_id": 28376,
        "name": "AURA",
        "group": "resource",
        "lat": -34.118203537907526,
        "lon": 106.75868101630068,
        "alt_km": 696.8104570291407,
        "timestamp": "2025-12-08T05:48:08.704042+00:00",
        "meta_object_name": "AURA",
        "meta_object_id": "2004-026A",
        "meta_epoch": "2025-12-07T22:14:56.224032",
        "meta_mean_motion": 14.60928925,
        "meta_eccentricity": 0.00011831,
        "meta_inclination": 98.3181,
        "meta_ra_of_asc_node": 292.1312,
        "meta_arg_of_pericenter": 93.9656,
        "meta_mean_anomaly": 266.1679,
        "meta_ephemeris_type": 0,
        "meta_classification_type": "U",
        "meta_norad_cat_id": 28376,
        "meta_element_set_no": 999,
        "meta_rev_at_epoch": 13828,
        "meta_bstar": 0.00036136832,
        "meta_mean_motion_dot": 1.722e-05,
        "meta_mean_motion_ddot": 0,
        "tle_line1": "1 28376U 04026A   25341.92703963  .00001722  00000+0  36137-3 0  9996",
        "tle_line2": "2 28376  98.3181 292.1312 0001183  93.9656 266.1679 14.60928925138284"
      },
      "geometry": {
        "type": "Point",
        "coordinates": [
          106.75868101630068,
          -34.118203537907526
        ]
      }
    },
    {
      "type": "Feature",
      "properties": {
        "norad_id": 28649,
        "name": "IRS-P5 (CARTOSAT-1)",
        "group": "resource",
        "lat": -48.11647022370908,
        "lon": 17.359386063416558,
        "alt_km": 603.7509629270098,
        "timestamp": "2025-12-08T05:48:08.704053+00:00",
        "meta_object_name": "IRS-P5 (CARTOSAT-1)",
        "meta_object_id": "2005-017A",
        "meta_epoch": "2025-12-07T23:34:30.489312",
        "meta_mean_motion": 14.90380424,
        "meta_eccentricity": 0.00015379,
        "meta_inclination": 97.5494,
        "meta_ra_of_asc_node": 8.6066,
        "meta_arg_of_pericenter": 49.5353,
        "meta_mean_anomaly": 310.6,
        "meta_ephemeris_type": 0,
        "meta_classification_type": "U",
        "meta_norad_cat_id": 28649,
        "meta_element_set_no": 999,
        "meta_rev_at_epoch": 11533,
        "meta_bstar": 0.00023611803,
        "meta_mean_motion_dot": 2.246e-05,
        "meta_mean_motion_ddot": 0,
        "tle_line1": "1 28649U 05017A   25341.98229733  .00002246  00000+0  23612-3 0  9990",
        "tle_line2": "2 28649  97.5494   8.6066 0001537  49.5353 310.6000 14.90380424115338"
      },
      "geometry": {
        "type": "Point",
        "coordinates": [
          17.359386063416558,
          -48.11647022370908
        ]
      }
    },
    {
      "type": "Feature",
      "properties": {
        "norad_id": 28893,
        "name": "SINAH 1",
        "group": "resource",
        "lat": 11.618075158399867,
        "lon": 109.07545431861831,
        "alt_km": 689.7589937640414,
        "timestamp": "2025-12-08T05:48:08.704064+00:00",
        "meta_object_name": "SINAH 1",
        "meta_object_id": "2005-043D",
        "meta_epoch": "2025-12-07T23:11:14.331840",
        "meta_mean_motion": 14.63953827,
        "meta_eccentricity": 0.00150834,
        "meta_inclination": 98.2601,
        "meta_ra_of_asc_node": 110.5107,
        "meta_arg_of_pericenter": 151.2224,
        "meta_mean_anomaly": 208.9814,
        "meta_ephemeris_type": 0,
        "meta_classification_type": "U",
        "meta_norad_cat_id": 28893,
        "meta_element_set_no": 999,
        "meta_rev_at_epoch": 7254,
        "meta_bstar": 0.00017154989,
        "meta_mean_motion_dot": 8.5e-06,
        "meta_mean_motion_ddot": 0,
        "tle_line1": "1 28893U 05043D   25341.96613810  .00000850  00000+0  17155-3 0  9995",
        "tle_line2": "2 28893  98.2601 110.5107 0015083 151.2224 208.9814 14.63953827 72545"
      },
      "geometry": {
        "type": "Point",
        "coordinates": [
          109.07545431861831,
          11.618075158399867
        ]
      }
    },
    {
      "type": "Feature",
      "properties": {
        "norad_id": 29079,
        "name": "EROS B",
        "group": "resource",
        "lat": 29.781822356892608,
        "lon": -77.15711803324132,
        "alt_km": 368.10607191754207,
        "timestamp": "2025-12-08T05:48:08.704075+00:00",
        "meta_object_name": "EROS B",
        "meta_object_id": "2006-014A",
        "meta_epoch": "2025-12-07T21:29:55.894848",
        "meta_mean_motion": 15.66384008,
        "meta_eccentricity": 0.0001723,
        "meta_inclination": 97.3487,
        "meta_ra_of_asc_node": 98.2457,
        "meta_arg_of_pericenter": 267.5718,
        "meta_mean_anomaly": 92.5345,
        "meta_ephemeris_type": 0,
        "meta_classification_type": "U",
        "meta_norad_cat_id": 29079,
        "meta_element_set_no": 999,
        "meta_rev_at_epoch": 9004,
        "meta_bstar": 0.0015661072,
        "meta_mean_motion_dot": 0.001651,
        "meta_mean_motion_ddot": 0,
        "tle_line1": "1 29079U 06014A   25341.89578582  .00165100  00000+0  15661-2 0  9998",
        "tle_line2": "2 29079  97.3487  98.2457 0001723 267.5718  92.5345 15.66384008 90043"
      },
      "geometry": {
        "type": "Point",
        "coordinates": [
          -77.15711803324132,
          29.781822356892608
        ]
      }
    },
    {
      "type": "Feature",
      "properties": {
        "norad_id": 29228,
        "name": "RESURS-DK 1",
        "group": "resource",
        "lat": -44.379475212430314,
        "lon": -45.579268444954955,
        "alt_km": 531.4283093250424,
        "timestamp": "2025-12-08T05:48:08.704085+00:00",
        "meta_object_name": "RESURS-DK 1",
        "meta_object_id": "2006-021A",
        "meta_epoch": "2025-12-07T19:16:15.140928",
        "meta_mean_motion": 15.12120613,
        "meta_eccentricity": 0.00076752,
        "meta_inclination": 69.9343,
        "meta_ra_of_asc_node": 114.5957,
        "meta_arg_of_pericenter": 262.626,
        "meta_mean_anomaly": 97.4034,
        "meta_ephemeris_type": 0,
        "meta_classification_type": "U",
        "meta_norad_cat_id": 29228,
        "meta_element_set_no": 999,
        "meta_rev_at_epoch": 7363,
        "meta_bstar": 0.00029966628,
        "meta_mean_motion_dot": 5.073e-05,
        "meta_mean_motion_ddot": 0,
        "tle_line1": "1 29228U 06021A   25341.80295302  .00005073  00000+0  29967-3 0  9996",
        "tle_line2": "2 29228  69.9343 114.5957 0007675 262.6260  97.4034 15.12120613 73638"
      },
      "geometry": {
        "type": "Point",
        "coordinates": [
          -45.579268444954955,
          -44.379475212430314
        ]
      }
    }
  ]
}